0 FENGYUN 1C DEB
1 37014U 99025ECW 13280.90682253  .00002948  00000-0  16996-2 0  2190
2 37014 098.9757 261.4359 0041949 127.2460 262.2964 14.09436473197617
0 FENGYUN 1C DEB
1 37014U 99025ECW 13289.44956690  .00003663  00000-0  21030-2 0  2209
2 37014 098.9759 269.9524 0042228 103.8917 048.2326 14.09496784198823
0 FENGYUN 1C DEB
1 37014U 99025ECW 13294.89151025  .00004784  00000-0  27352-2 0  2212
2 37014 098.9783 275.3759 0043334 088.5291 302.1239 14.09533434199587
